IRIDIUM 124             
1 42810U 17039H   26117.09426068  .00000094  00000+0  21898-4 0  9991
2 42810  86.4456 311.7386 0002220  89.1854 270.9602 14.43281294467742
IRIDIUM 128             
1 42811U 17039J   26117.34790203  .00000017  00000+0 -10107-5 0  9993
2 42811  86.3986  46.3954 0002275  80.0658 280.0794 14.34217539462698
IRIDIUM 121             
1 42812U 17039K   26117.44597877  .00000271  00000+0  89692-4 0  9992
2 42812  86.4015  14.8759 0002221  82.3744 277.7704 14.34220209462555
IRIDIUM 133             
1 42955U 17061A   26117.51915197  .00000028  00000+0  30003-5 0  9995
2 42955  86.3990  46.4402 0002274  85.3056 274.8400 14.34217728447519
IRIDIUM 100             
1 42956U 17061B   26117.51280860  .00000105  00000+0  30419-4 0  9994
2 42956  86.3988  46.3625 0002276  84.6083 275.5372 14.34217598447518
IRIDIUM 122             
1 42957U 17061C   26117.34155921  .00000115  00000+0  34128-4 0  9997
2 42957  86.3988  46.4341 0002279  86.9415 273.2042 14.34218130447491
IRIDIUM 129             
1 42958U 17061D   26117.29716060 -.00000012  00000+0 -11520-4 0  9998
2 42958  86.3989  46.5194 0001852  87.0187 273.1220 14.34217352447508
IRIDIUM 119             
1 42959U 17061E   26117.33521683  .00000003  00000+0 -59929-5 0  9994
2 42959  86.3987  46.4991 0002122  88.4044 271.7395 14.34217456447523
IRIDIUM 107             
1 42960U 17061F   26117.35424521 -.00000103  00000+0 -43854-4 0  9992
2 42960  86.3988  46.5122 0002357  87.0301 273.1165 14.34217272447532
IRIDIUM 132             
1 42961U 17061G   26117.50012431  .00000017  00000+0 -10279-5 0  9992
2 42961  86.3991  46.4308 0002277  85.5077 274.6378 14.34217687447550
IRIDIUM 136             
1 42962U 17061H   26117.32253182  .00000004  00000+0 -57966-5 0  9993
2 42962  86.3989  46.5117 0002173  87.6147 272.5297 14.34217490447541
IRIDIUM 139             
1 42963U 17061J   26117.32887416  .00000018  00000+0 -56359-6 0  9998
2 42963  86.3990  46.5699 0002343  83.9434 276.2029 14.34217744447553
IRIDIUM 125             
1 42964U 17061K   26117.31618922 -.00000009  00000+0 -10366-4 0  9999
2 42964  86.3990  46.6355 0002299  98.0355 262.1102 14.34217450447564
IRIDIUM 135             
1 43070U 17083A   26117.36008274  .00000049  00000+0  10608-4 0  9991
2 43070  86.3986 343.2713 0002176  86.6541 273.4904 14.34217988436868
IRIDIUM 138             
1 43071U 17083B   26117.38545265  .00000037  00000+0  60047-5 0  9990
2 43071  86.3993 342.9482 0001902  95.8792 264.2620 14.34217818436856
IRIDIUM 116             
1 43072U 17083C   26117.07467090  .00000266  00000+0  87941-4 0  9991
2 43072  86.3984 343.3770 0002341  81.0033 279.1428 14.34211030436845
IRIDIUM 130             
1 43073U 17083D   26117.32202800 -.00000013  00000+0 -11587-4 0  9991
2 43073  86.3988 343.5436 0002318  85.0354 275.1106 14.34217483436820
