[{"OBJECT_NAME":"IRIDIUM 124","OBJECT_ID":"2017-039H","EPOCH":"2026-04-27T02:15:44.122752","MEAN_MOTION":14.43281294,"ECCENTRICITY":0.000222,"INCLINATION":86.4456,"RA_OF_ASC_NODE":311.7386,"ARG_OF_PERICENTER":89.1854,"MEAN_ANOMALY":270.9602,"EPHEMERIS_TYPE":0,"CLASSIFICATION_TYPE":"U","NORAD_CAT_ID":42810,"ELEMENT_SET_NO":999,"REV_AT_EPOCH":46774,"BSTAR":2.1898414e-5,"MEAN_MOTION_DOT":9.4e-7,"MEAN_MOTION_DDOT":0},{"OBJECT_NAME":"IRIDIUM 128","OBJECT_ID":"2017-039J","EPOCH":"2026-04-27T08:20:58.735392","MEAN_MOTION":14.34217539,"ECCENTRICITY":0.0002275,"INCLINATION":86.3986,"RA_OF_ASC_NODE":46.3954,"ARG_OF_PERICENTER":80.0658,"MEAN_ANOMALY":280.0794,"EPHEMERIS_TYPE":0,"CLASSIFICATION_TYPE":"U","NORAD_CAT_ID":42811,"ELEMENT_SET_NO":999,"REV_AT_EPOCH":46269,"BSTAR":-1.0107e-6,"MEAN_MOTION_DOT":1.7e-7,"MEAN_MOTION_DDOT":0},{"OBJECT_NAME":"IRIDIUM 121","OBJECT_ID":"2017-039K","EPOCH":"2026-04-27T10:42:12.565728","MEAN_MOTION":14.34220209,"ECCENTRICITY":0.0002221,"INCLINATION":86.4015,"RA_OF_ASC_NODE":14.8759,"ARG_OF_PERICENTER":82.3744,"MEAN_ANOMALY":277.7704,"EPHEMERIS_TYPE":0,"CLASSIFICATION_TYPE":"U","NORAD_CAT_ID":42812,"ELEMENT_SET_NO":999,"REV_AT_EPOCH":46255,"BSTAR":8.9692e-5,"MEAN_MOTION_DOT":2.71e-6,"MEAN_MOTION_DDOT":0},{"OBJECT_NAME":"IRIDIUM 133","OBJECT_ID":"2017-061A","EPOCH":"2026-04-27T12:27:34.730208","MEAN_MOTION":14.34217728,"ECCENTRICITY":0.0002274,"INCLINATION":86.399,"RA_OF_ASC_NODE":46.4402,"ARG_OF_PERICENTER":85.3056,"MEAN_ANOMALY":274.84,"EPHEMERIS_TYPE":0,"CLASSIFICATION_TYPE":"U","NORAD_CAT_ID":42955,"ELEMENT_SET_NO":999,"REV_AT_EPOCH":44751,"BSTAR":3.0003e-6,"MEAN_MOTION_DOT":2.8e-7,"MEAN_MOTION_DDOT":0},{"OBJECT_NAME":"IRIDIUM 100","OBJECT_ID":"2017-061B","EPOCH":"2026-04-27T12:18:26.663040","MEAN_MOTION":14.34217598,"ECCENTRICITY":0.0002276,"INCLINATION":86.3988,"RA_OF_ASC_NODE":46.3625,"ARG_OF_PERICENTER":84.6083,"MEAN_ANOMALY":275.5372,"EPHEMERIS_TYPE":0,"CLASSIFICATION_TYPE":"U","NORAD_CAT_ID":42956,"ELEMENT_SET_NO":999,"REV_AT_EPOCH":44751,"BSTAR":3.0419e-5,"MEAN_MOTION_DOT":1.05e-6,"MEAN_MOTION_DDOT":0},{"OBJECT_NAME":"IRIDIUM 122","OBJECT_ID":"2017-061C","EPOCH":"2026-04-27T08:11:50.715744","MEAN_MOTION":14.3421813,"ECCENTRICITY":0.0002279,"INCLINATION":86.3988,"RA_OF_ASC_NODE":46.4341,"ARG_OF_PERICENTER":86.9415,"MEAN_ANOMALY":273.2042,"EPHEMERIS_TYPE":0,"CLASSIFICATION_TYPE":"U","NORAD_CAT_ID":42957,"ELEMENT_SET_NO":999,"REV_AT_EPOCH":44749,"BSTAR":3.4128e-5,"MEAN_MOTION_DOT":1.15e-6,"MEAN_MOTION_DDOT":0},{"OBJECT_NAME":"IRIDIUM 129","OBJECT_ID":"2017-061D","EPOCH":"2026-04-27T07:07:54.675840","MEAN_MOTION":14.34217352,"ECCENTRICITY":0.0001852,"INCLINATION":86.3989,"RA_OF_ASC_NODE":46.5194,"ARG_OF_PERICENTER":87.0187,"MEAN_ANOMALY":273.122,"EPHEMERIS_TYPE":0,"CLASSIFICATION_TYPE":"U","NORAD_CAT_ID":42958,"ELEMENT_SET_NO":999,"REV_AT_EPOCH":44750,"BSTAR":-1.152e-5,"MEAN_MOTION_DOT":-1.2e-7,"MEAN_MOTION_DDOT":0},{"OBJECT_NAME":"IRIDIUM 119","OBJECT_ID":"2017-061E","EPOCH":"2026-04-27T08:02:42.734112","MEAN_MOTION":14.34217456,"ECCENTRICITY":0.0002122,"INCLINATION":86.3987,"RA_OF_ASC_NODE":46.4991,"ARG_OF_PERICENTER":88.4044,"MEAN_ANOMALY":271.7395,"EPHEMERIS_TYPE":0,"CLASSIFICATION_TYPE":"U","NORAD_CAT_ID":42959,"ELEMENT_SET_NO":999,"REV_AT_EPOCH":44752,"BSTAR":-5.9929e-6,"MEAN_MOTION_DOT":3.0e-8,"MEAN_MOTION_DDOT":0},{"OBJECT_NAME":"IRIDIUM 107","OBJECT_ID":"2017-061F","EPOCH":"2026-04-27T08:30:06.786144","MEAN_MOTION":14.34217272,"ECCENTRICITY":0.0002357,"INCLINATION":86.3988,"RA_OF_ASC_NODE":46.5122,"ARG_OF_PERICENTER":87.0301,"MEAN_ANOMALY":273.1165,"EPHEMERIS_TYPE":0,"CLASSIFICATION_TYPE":"U","NORAD_CAT_ID":42960,"ELEMENT_SET_NO":999,"REV_AT_EPOCH":44753,"BSTAR":-4.3854e-5,"MEAN_MOTION_DOT":-1.03e-6,"MEAN_MOTION_DDOT":0},{"OBJECT_NAME":"IRIDIUM 132","OBJECT_ID":"2017-061G","EPOCH":"2026-04-27T12:00:10.740384","MEAN_MOTION":14.34217687,"ECCENTRICITY":0.0002277,"INCLINATION":86.3991,"RA_OF_ASC_NODE":46.4308,"ARG_OF_PERICENTER":85.5077,"MEAN_ANOMALY":274.6378,"EPHEMERIS_TYPE":0,"CLASSIFICATION_TYPE":"U","NORAD_CAT_ID":42961,"ELEMENT_SET_NO":999,"REV_AT_EPOCH":44755,"BSTAR":-1.0279e-6,"MEAN_MOTION_DOT":1.7e-7,"MEAN_MOTION_DDOT":0},{"OBJECT_NAME":"IRIDIUM 136","OBJECT_ID":"2017-061H","EPOCH":"2026-04-27T07:44:26.749248","MEAN_MOTION":14.3421749,"ECCENTRICITY":0.0002173,"INCLINATION":86.3989,"RA_OF_ASC_NODE":46.5117,"ARG_OF_PERICENTER":87.6147,"MEAN_ANOMALY":272.5297,"EPHEMERIS_TYPE":0,"CLASSIFICATION_TYPE":"U","NORAD_CAT_ID":42962,"ELEMENT_SET_NO":999,"REV_AT_EPOCH":44754,"BSTAR":-5.7966e-6,"MEAN_MOTION_DOT":4.0e-8,"MEAN_MOTION_DDOT":0},{"OBJECT_NAME":"IRIDIUM 139","OBJECT_ID":"2017-061J","EPOCH":"2026-04-27T07:53:34.727424","MEAN_MOTION":14.34217744,"ECCENTRICITY":0.0002343,"INCLINATION":86.399,"RA_OF_ASC_NODE":46.5699,"ARG_OF_PERICENTER":83.9434,"MEAN_ANOMALY":276.2029,"EPHEMERIS_TYPE":0,"CLASSIFICATION_TYPE":"U","NORAD_CAT_ID":42963,"ELEMENT_SET_NO":999,"REV_AT_EPOCH":44755,"BSTAR":-5.6359e-7,"MEAN_MOTION_DOT":1.8e-7,"MEAN_MOTION_DDOT":0},{"OBJECT_NAME":"IRIDIUM 125","OBJECT_ID":"2017-061K","EPOCH":"2026-04-27T07:35:18.748608","MEAN_MOTION":14.3421745,"ECCENTRICITY":0.0002299,"INCLINATION":86.399,"RA_OF_ASC_NODE":46.6355,"ARG_OF_PERICENTER":98.0355,"MEAN_ANOMALY":262.1102,"EPHEMERIS_TYPE":0,"CLASSIFICATION_TYPE":"U","NORAD_CAT_ID":42964,"ELEMENT_SET_NO":999,"REV_AT_EPOCH":44756,"BSTAR":-1.0366e-5,"MEAN_MOTION_DOT":-9.0e-8,"MEAN_MOTION_DDOT":0},{"OBJECT_NAME":"IRIDIUM 135","OBJECT_ID":"2017-083A","EPOCH":"2026-04-27T08:38:31.148736","MEAN_MOTION":14.34217988,"ECCENTRICITY":0.0002176,"INCLINATION":86.3986,"RA_OF_ASC_NODE":343.2713,"ARG_OF_PERICENTER":86.6541,"MEAN_ANOMALY":273.4904,"EPHEMERIS_TYPE":0,"CLASSIFICATION_TYPE":"U","NORAD_CAT_ID":43070,"ELEMENT_SET_NO":999,"REV_AT_EPOCH":43686,"BSTAR":1.0608e-5,"MEAN_MOTION_DOT":4.9e-7,"MEAN_MOTION_DDOT":0},{"OBJECT_NAME":"IRIDIUM 138","OBJECT_ID":"2017-083B","EPOCH":"2026-04-27T09:15:03.108960","MEAN_MOTION":14.34217818,"ECCENTRICITY":0.0001902,"INCLINATION":86.3993,"RA_OF_ASC_NODE":342.9482,"ARG_OF_PERICENTER":95.8792,"MEAN_ANOMALY":264.262,"EPHEMERIS_TYPE":0,"CLASSIFICATION_TYPE":"U","NORAD_CAT_ID":43071,"ELEMENT_SET_NO":999,"REV_AT_EPOCH":43685,"BSTAR":6.0047e-6,"MEAN_MOTION_DOT":3.7e-7,"MEAN_MOTION_DDOT":0},{"OBJECT_NAME":"IRIDIUM 116","OBJECT_ID":"2017-083C","EPOCH":"2026-04-27T01:47:31.565760","MEAN_MOTION":14.3421103,"ECCENTRICITY":0.00023416,"INCLINATION":86.3984,"RA_OF_ASC_NODE":343.377,"ARG_OF_PERICENTER":81.0033,"MEAN_ANOMALY":279.1428,"EPHEMERIS_TYPE":0,"CLASSIFICATION_TYPE":"U","NORAD_CAT_ID":43072,"ELEMENT_SET_NO":999,"REV_AT_EPOCH":43684,"BSTAR":8.7940709e-5,"MEAN_MOTION_DOT":2.66e-6,"MEAN_MOTION_DDOT":0},{"OBJECT_NAME":"IRIDIUM 130","OBJECT_ID":"2017-083D","EPOCH":"2026-04-27T07:43:43.219200","MEAN_MOTION":14.34217483,"ECCENTRICITY":0.0002318,"INCLINATION":86.3988,"RA_OF_ASC_NODE":343.5436,"ARG_OF_PERICENTER":85.0354,"MEAN_ANOMALY":275.1106,"EPHEMERIS_TYPE":0,"CLASSIFICATION_TYPE":"U","NORAD_CAT_ID":43073,"ELEMENT_SET_NO":999,"REV_AT_EPOCH":43682,"BSTAR":-1.1587e-5,"MEAN_MOTION_DOT":-1.3e-7,"MEAN_MOTION_DDOT":0}]
